[{"OBJECT_NAME":"ONEWEB-0588","OBJECT_ID":"2023-004P","EPOCH":"2026-03-09T17:01:44.328576","MEAN_MOTION":13.18689624,"ECCENTRICITY":0.00020615,"INCLINATION":87.924,"RA_OF_ASC_NODE":355.2349,"ARG_OF_PERICENTER":68.5506,"MEAN_ANOMALY":291.5846,"EPHEMERIS_TYPE":0,"CLASSIFICATION_TYPE":"U","NORAD_CAT_ID":55153,"ELEMENT_SET_NO":999,"REV_AT_EPOCH":15658,"BSTAR":-0.00027419401,"MEAN_MOTION_DOT":-9.5e-7,"MEAN_MOTION_DDOT":0},{"OBJECT_NAME":"SL-14 DEB","OBJECT_ID":"1991-056BQ","EPOCH":"2026-03-09T08:33:35.379936","MEAN_MOTION":13.25026932,"ECCENTRICITY":0.00362623,"INCLINATION":82.5917,"RA_OF_ASC_NODE":200.3207,"ARG_OF_PERICENTER":267.7716,"MEAN_ANOMALY":91.9259,"EPHEMERIS_TYPE":0,"CLASSIFICATION_TYPE":"U","NORAD_CAT_ID":45326,"ELEMENT_SET_NO":999,"REV_AT_EPOCH":29297,"BSTAR":0.0017802165,"MEAN_MOTION_DOT":7.86e-6,"MEAN_MOTION_DDOT":0}]
